PERSEUS-M1              
1 40039U 14033AF  26168.83898993  .00001267  00000+0  11943-3 0  9993
2 40039  97.9641 112.9814 0010261 298.8550  61.1639 14.95632448650730
POLYITAN-1              
1 40042U 14033AJ  26168.05228332  .00015900  00000+0  49659-3 0  9999
2 40042  98.0938 194.3006 0008630 141.6733 218.5122 15.33254216653573
TIGRISAT                
1 40043U 14033AK  26168.38535646  .00001661  00000+0  19587-3 0  9991
2 40043  97.7829 318.3922 0050591  74.5854 286.0942 14.85162991645659
AEROCUBE 6A             
1 40045U 14033AM  26168.89185519  .00004351  00000+0  36679-3 0  9999
2 40045  97.7247 335.8327 0038859  15.7212 344.5207 14.98115879646726
AEROCUBE 6B             
1 40046U 14033AN  26168.89349872  .00004154  00000+0  33762-3 0  9995
2 40046  97.7245 335.6262 0038259   6.9510 353.2236 14.99576192646862
CANX-4                  
1 40055U 14034C   26168.62474889  .00000723  00000+0  10006-3 0  9998
2 40055  98.3121  43.9539 0013135  15.6854 344.4762 14.81265369644598
CANX-5                  
1 40056U 14034D   26168.62317704  .00000726  00000+0  10032-3 0  9993
2 40056  98.3123  43.9959 0013144  15.9021 344.2600 14.81282603635405
UKUBE-1                 
1 40074U 14037F   26168.96158025  .00007654  00000+0  43097-3 0  9996
2 40074  98.4232 172.3147 0002640 131.7969 228.3486 15.13564400648671
BRITE-PL2 (HEWELIUSZ)   
1 40119U 14049B   26168.84184692  .00001543  00000+0  14781-3 0  9994
2 40119  97.9098 280.8468 0015305 106.5628 253.7274 14.94595353641545
AEROCUBE 5C             
1 40965U 15058B   26168.50608647  .00001718  00000+0  16077-3 0  9992
2 40965  64.7676 261.5986 0130756  63.1470 298.2940 14.91454811365705
AEROCUBE 7              
1 40966U 15058C   26168.50150937  .00002489  00000+0  20685-3 0  9993
2 40966  64.7618 243.8316 0120478  61.5772 299.7422 14.95727167366005
FOX-1A (AO-85)          
1 40967U 15058D   26168.62085905  .00001835  00000+0  17288-3 0  9998
2 40967  64.7761 277.6363 0130498  56.4134 304.9355 14.90971345113637
SINOD-D 1               
1 40968U 15058E   26168.47942457  .00002427  00000+0  20174-3 0  9992
2 40968  64.7753 257.9976 0119049  52.9638 308.2295 14.95907070116709
SNAP-3 ALICE            
1 40970U 15058G   26168.87886956  .00107342  00000+0  12714-2 0  9992
2 40970  64.7501 101.5406 0028111  12.3667 347.8162 15.60194157116996
LMRST-SAT               
1 40971U 15058H   26168.64336450  .00001676  00000+0  16024-3 0  9999
2 40971  64.7765 273.9050 0132104  58.4374 302.9558 14.90591401113625
SNAP-3 EDDIE            
1 40972U 15058J   26168.86835610  .00112050  00000+0  12626-2 0  9998
2 40972  64.7423  92.2962 0027656  16.3214 343.8816 15.61484150119136
PROPCUBE 3              
1 40973U 15058K   26168.61090290  .00002101  00000+0  18236-3 0  9998
2 40973  64.7683 251.2121 0124057  59.7494 301.5831 14.94259233114863
BISONSAT                
1 40974U 15058L   26168.29702111  .00009510  00000+0  46212-3 0  9991
2 40974  64.7578 173.2895 0079034  47.2137 313.5598 15.16191198115637
SNAP-3 JIMI             
1 40975U 15058M   26168.52204411  .00003494  00000+0  24618-3 0  9999
2 40975  64.7634 218.7133 0106190  55.2315 305.8742 15.02299948114273
PROPCUBE 1 (FLORA)      
1 40976U 15058N   26168.73302028  .00001776  00000+0  17540-3 0  9993
2 40976  64.7756 293.5441 0130784  60.7107 300.7001 14.89224245116342
SINOD-D 3               
1 40977U 15058P   26168.64265797  .00002465  00000+0  21502-3 0  9994
2 40977  64.7731 274.3970 0119289  57.9531 303.3103 14.94018331114822
HORYU-4                 
1 41340U 16012D   26166.43547623  .00392649  54783-4  97992-3 0  9990
2 41340  30.9849  91.8834 0005149 261.3375  98.6703 15.94546005570538
RAVAN                   
1 41849U 16067B   26168.62294488  .00041762  00000+0  62850-3 0  9995
2 41849  97.9885  58.2450 0004350  30.7045 329.4461 15.54715038527764
CELTEE 1                
1 41850U 16067C   26168.86554824  .00004080  00000+0  19479-3 0  9997
2 41850  98.0667  35.4787 0000970 126.7239 233.4083 15.19687812525986
OPTICUBE 04             
1 41851U 16067D   26168.54315751  .00002169  00000+0  13878-3 0  9990
2 41851  98.0694  20.8453 0016863 114.5788 245.7199 15.09660048525229
AEROCUBE 8D             
1 41852U 16067E   26168.87763238  .00005976  00000+0  24703-3 0  9992
2 41852  98.0674  39.1013 0004733 121.4988 238.6710 15.24405693526170
AEROCUBE 8C             
1 41853U 16067F   26168.11494496  .00006089  00000+0  24980-3 0  9990
2 41853  98.0547  35.5083 0006610  69.3515 290.8429 15.24645087526056
CORVUS BC2              
1 42846U 17042X   26168.92558733  .00003308  00000+0  22866-3 0  9993
2 42846  97.4070 330.2460 0014397 108.1881 252.0916 15.06302248487175
CORVUS BC1              
1 42847U 17042Y   26168.92011242  .00002922  00000+0  20166-3 0  9995
2 42847  97.4104 331.0556 0013412  87.0132 273.2631 15.06471758487206
MAKERSAT 0              
1 43016U 17073D   26168.63711396  .00013770  00000+0  37519-3 0  9996
2 43016  97.4617  51.1594 0105074 271.3551  87.5656 15.32110935466537
