OBJECT_NAME,OBJECT_ID,EPOCH,MEAN_MOTION,ECCENTRICITY,INCLINATION,RA_OF_ASC_NODE,ARG_OF_PERICENTER,MEAN_ANOMALY,EPHEMERIS_TYPE,CLASSIFICATION_TYPE,NORAD_CAT_ID,ELEMENT_SET_NO,REV_AT_EPOCH,BSTAR,MEAN_MOTION_DOT,MEAN_MOTION_DDOT
PERSEUS-M1,2014-033AF,2026-06-17T20:08:08.729952,14.95632448,.00102619,97.9641,112.9814,298.8550,61.1639,0,U,40039,999,65073,.11943002E-3,.1267E-4,0
POLYITAN-1,2014-033AJ,2026-06-17T01:15:17.278848,15.33254216,.00086301,98.0938,194.3006,141.6733,218.5122,0,U,40042,999,65357,.49658794E-3,.159E-3,0
TIGRISAT,2014-033AK,2026-06-17T09:14:54.798144,14.85162991,.00505914,97.7829,318.3922,74.5854,286.0942,0,U,40043,999,64565,.1958723E-3,.1661E-4,0
AEROCUBE 6A,2014-033AM,2026-06-17T21:24:16.288416,14.98115879,.00388595,97.7247,335.8327,15.7212,344.5207,0,U,40045,999,64672,.36679202E-3,.4351E-4,0
AEROCUBE 6B,2014-033AN,2026-06-17T21:26:38.289408,14.99576192,.00382594,97.7245,335.6262,6.9510,353.2236,0,U,40046,999,64686,.3376186E-3,.4154E-4,0
CANX-4,2014-034C,2026-06-17T14:59:38.304096,14.81265369,.00131357,98.3121,43.9539,15.6854,344.4762,0,U,40055,999,64459,.10006262E-3,.723E-5,0
CANX-5,2014-034D,2026-06-17T14:57:22.496256,14.81282603,.00131441,98.3123,43.9959,15.9021,344.2600,0,U,40056,999,63540,.10031719E-3,.726E-5,0
UKUBE-1,2014-037F,2026-06-17T23:04:40.533600,15.13564400,.000264,98.4232,172.3147,131.7969,228.3486,0,U,40074,999,64867,.43096833E-3,.7654E-4,0
BRITE-PL2 (HEWELIUSZ),2014-049B,2026-06-17T20:12:15.573888,14.94595353,.00153055,97.9098,280.8468,106.5628,253.7274,0,U,40119,999,64154,.14781079E-3,.1543E-4,0
AEROCUBE 5C,2015-058B,2026-06-17T12:08:45.871008,14.91454811,.01307566,64.7676,261.5986,63.1470,298.2940,0,U,40965,999,36570,.16077043E-3,.1718E-4,0
AEROCUBE 7,2015-058C,2026-06-17T12:02:10.409568,14.95727167,.0120478,64.7618,243.8316,61.5772,299.7422,0,U,40966,999,36600,.20684879E-3,.2489E-4,0
FOX-1A (AO-85),2015-058D,2026-06-17T14:54:02.221920,14.90971345,.01304986,64.7761,277.6363,56.4134,304.9355,0,U,40967,999,11363,.17288103E-3,.1835E-4,0
SINOD-D 1,2015-058E,2026-06-17T11:30:22.282848,14.95907070,.01190493,64.7753,257.9976,52.9638,308.2295,0,U,40968,999,11670,.201744E-3,.2427E-4,0
SNAP-3 ALICE,2015-058G,2026-06-17T21:05:34.329984,15.60194157,.00281117,64.7501,101.5406,12.3667,347.8162,0,U,40970,999,11699,.1271392E-2,.107342E-2,0
LMRST-SAT,2015-058H,2026-06-17T15:26:26.692800,14.90591401,.01321043,64.7765,273.9050,58.4374,302.9558,0,U,40971,999,11362,.16024406E-3,.1676E-4,0
SNAP-3 EDDIE,2015-058J,2026-06-17T20:50:25.967040,15.61484150,.00276569,64.7423,92.2962,16.3214,343.8816,0,U,40972,999,11913,.12625922E-2,.11205E-2,0
PROPCUBE 3,2015-058K,2026-06-17T14:39:42.010560,14.94259233,.01240578,64.7683,251.2121,59.7494,301.5831,0,U,40973,999,11486,.18236387E-3,.2101E-4,0
BISONSAT,2015-058L,2026-06-17T07:07:42.623904,15.16191198,.00790342,64.7578,173.2895,47.2137,313.5598,0,U,40974,999,11563,.46211703E-3,.951E-4,0
SNAP-3 JIMI,2015-058M,2026-06-17T12:31:44.611104,15.02299948,.010619,64.7634,218.7133,55.2315,305.8742,0,U,40975,999,11427,.24618E-3,.3494E-4,0
PROPCUBE 1 (FLORA),2015-058N,2026-06-17T17:35:32.952192,14.89224245,.01307841,64.7756,293.5441,60.7107,300.7001,0,U,40976,999,11634,.17539591E-3,.1776E-4,0
SINOD-D 3,2015-058P,2026-06-17T15:25:25.648608,14.94018331,.01192893,64.7731,274.3970,57.9531,303.3103,0,U,40977,999,11482,.21502479E-3,.2465E-4,0
HORYU-4,2016-012D,2026-06-15T10:27:05.146272,15.94546005,.00051492,30.9849,91.8834,261.3375,98.6703,0,U,41340,999,57053,.9799184E-3,.392649E-2,.54782598E-4
RAVAN,2016-067B,2026-06-17T14:57:02.437632,15.54715038,.00043504,97.9885,58.2450,30.7045,329.4461,0,U,41849,999,52776,.62850124E-3,.41762E-3,0
CELTEE 1,2016-067C,2026-06-17T20:46:23.367936,15.19687812,.00009708,98.0667,35.4787,126.7239,233.4083,0,U,41850,999,52598,.19479495E-3,.408E-4,0
OPTICUBE 04,2016-067D,2026-06-17T13:02:08.808864,15.09660048,.0016863,98.0694,20.8453,114.5788,245.7199,0,U,41851,999,52522,.13878E-3,.2169E-4,0
AEROCUBE 8D,2016-067E,2026-06-17T21:03:47.437632,15.24405693,.00047339,98.0674,39.1013,121.4988,238.6710,0,U,41852,999,52617,.24703001E-3,.5976E-4,0
AEROCUBE 8C,2016-067F,2026-06-17T02:45:31.244544,15.24645087,.00066104,98.0547,35.5083,69.3515,290.8429,0,U,41853,999,52605,.2498007E-3,.6089E-4,0
CORVUS BC2,2017-042X,2026-06-17T22:12:50.745312,15.06302248,.0014397,97.4070,330.2460,108.1881,252.0916,0,U,42846,999,48717,.22865818E-3,.3308E-4,0
CORVUS BC1,2017-042Y,2026-06-17T22:04:57.713088,15.06471758,.00134123,97.4104,331.0556,87.0132,273.2631,0,U,42847,999,48720,.20165978E-3,.2922E-4,0
MAKERSAT 0,2017-073D,2026-06-17T15:17:26.646144,15.32110935,.01050745,97.4617,51.1594,271.3551,87.5656,0,U,43016,999,46653,.37519118E-3,.1377E-3,0
